NORAD_CAT_ID,OBJECT_NAME,OBJECT_TYPE,EPOCH,MEAN_MOTION,ECCENTRICITY,INCLINATION,RA_OF_ASC_NODE,ARG_OF_PERICENTER,MEAN_ANOMALY,BSTAR,MEAN_MOTION_DOT,MEAN_MOTION_DDOT,TLE_LINE0,TLE_LINE1,TLE_LINE2,SEMIMAJOR_AXIS,PERIOD,APOGEE,PERIGEE,DECAYED
53638.0,STARLINK-4594,PAYLOAD,2022-11-18 22:00:00,15.28800965,0.0001348,53.217,241.8541,81.11399999999998,105.8388,-0.046196,-0.01205582,0.0,0 STARLINK-4594,1 53638U 22104BC  22322.91667824 -.01205582  00000-0 -46196-1 0  9990,2 53638  53.2170 241.8541 0001348  81.1140 105.8388 15.28800965  1302,6857.533,94.191,480.322,478.473,0.0
53638.0,STARLINK-4594,PAYLOAD,2022-11-19 14:00:01,15.27138852,0.0001339,53.2171,238.7719,73.9674,182.0947,-0.046572,-0.01143436,0.0,0 STARLINK-4594,1 53638U 22104BC  22323.58334491 -.01143436  00000-0 -46572-1 0  9992,2 53638  53.2171 238.7719 0001339  73.9674 182.0947 15.27138852  1302,6862.507,94.294,485.291,483.453,0.0
53638.0,STARLINK-4594,PAYLOAD,2022-11-19 16:00:00,15.26926062,0.0001173,53.2171,238.3869,68.8908,285.5373,-0.046319,-0.01130996,0.0,0 STARLINK-4594,1 53638U 22104BC  22323.66667824 -.01130996  00000-0 -46319-1 0  9996,2 53638  53.2171 238.3869 0001173  68.8908 285.5373 15.26926062 13136,6863.145,94.307,485.815,484.205,0.0
53638.0,STARLINK-4594,PAYLOAD,2022-11-19 22:00:00,15.26392028,0.0001192,53.2169,237.2341,88.6741,200.431,-0.05161,-0.01247247,0.0,0 STARLINK-4594,1 53638U 22104BC  22323.91667824 -.01247247  00000-0 -51610-1 0  9992,2 53638  53.2169 237.2341 0001192  88.6741 200.4310 15.26392028  1304,6864.746,94.34,487.429,485.792,0.0
53638.0,STARLINK-4594,PAYLOAD,2022-11-20 14:00:01,15.24690404,0.0001155,53.2171,234.1633,70.187,282.181,-0.049683,-0.01148441,0.0,0 STARLINK-4594,1 53638U 22104BC  22324.58334491 -.01148441  00000-0 -49683-1 0  9990,2 53638  53.2171 234.1633 0001155  70.1870 282.1810 15.24690404 13273,6869.852,94.445,492.511,490.924,0.0
53638.0,STARLINK-4594,PAYLOAD,2022-11-20 22:00:00,15.23878361,0.0001225,53.2177,232.6318,67.7892,314.7228,-0.051032,-0.01150999,0.0,0 STARLINK-4594,1 53638U 22104BC  22324.91667824 -.01150999  00000-0 -51032-1 0  9998,2 53638  53.2177 232.6318 0001225  67.7892 314.7228 15.23878361  1301,6872.293000000002,94.496,494.999,493.316,0.0
53638.0,STARLINK-4594,PAYLOAD,2022-11-21 14:00:01,15.22249899,0.0001262,53.2172,229.5718,68.3897,11.4802,-0.053501,-0.01149601,0.0,0 STARLINK-4594,1 53638U 22104BC  22325.58334491 -.01149601  00000-0 -53501-1 0  9994,2 53638  53.2172 229.5718 0001262  68.3897  11.4802 15.22249899  1304,6877.193,94.597,499.926,498.19,0.0
53638.0,STARLINK-4594,PAYLOAD,2022-11-22 00:00:00,15.21233078,0.0001418,53.2172,227.6651,88.5786,115.1521,-0.055163,-0.01150161,0.0,0 STARLINK-4594,1 53638U 22104BC  22326.00001157 -.01150161  00000-0 -55163-1 0  9991,2 53638  53.2172 227.6651 0001418  88.5786 115.1521 15.21233078  1304,6880.257,94.66,503.098,501.146,0.0
53638.0,STARLINK-4594,PAYLOAD,2022-11-22 14:00:01,15.1980797,0.0001382,53.2174,224.9975,74.4952,84.1396,-0.057427,-0.01148395,0.0,0 STARLINK-4594,1 53638U 22104BC  22326.58335648 -.01148395  00000-0 -57427-1 0  9990,2 53638  53.2174 224.9975 0001382  74.4952  84.1396 15.19807970 13576,6884.557,94.749,507.374,505.471,0.0
53638.0,STARLINK-4594,PAYLOAD,2022-11-22 22:00:00,15.190236,0.0001406999999999,53.217,223.4774,98.4158,84.41799999999998,-0.060938,-0.01187646,0.0,0 STARLINK-4594,1 53638U 22104BC  22326.91667824 -.01187646  00000-0 -60938-1 0  9994,2 53638  53.2170 223.4774 0001407  98.4158  84.4180 15.19023600  1307,6886.927,94.798,509.761,507.823,0.0
53638.0,STARLINK-4594,PAYLOAD,2022-11-23 14:00:01,15.173747699999998,0.0001384,53.2169,220.4405,77.1235,151.3446,-0.062283,-0.0115953,0.0,0 STARLINK-4594,1 53638U 22104BC  22327.58334491 -.01159530  00000-0 -62283-1 0  9995,2 53638  53.2169 220.4405 0001384  77.1235 151.3446 15.17374770  1301,6891.915,94.901,514.734,512.827,0.0
53638.0,STARLINK-4594,PAYLOAD,2022-11-23 16:00:00,15.17160822,0.0001246,53.2174,220.0614,78.3491,245.5515,-0.061772,-0.01144184,0.0,0 STARLINK-4594,1 53638U 22104BC  22327.66667824 -.01144184  00000-0 -61772-1 0  9994,2 53638  53.2174 220.0614 0001246  78.3491 245.5515 15.17160822 13744,6892.563,94.914,515.2869999999998,513.569,0.0
53638.0,STARLINK-4594,PAYLOAD,2022-11-23 22:00:00,15.16588228,0.0001393,53.2169,218.9263,100.9646,148.8327,-0.065816,-0.01194794,0.0,0 STARLINK-4594,1 53638U 22104BC  22327.91667824 -.01194794  00000-0 -65816-1 0  9997,2 53638  53.2169 218.9263 0001393 100.9646 148.8327 15.16588228  1309,6894.2980000000025,94.95,517.123,515.203,0.0
53638.0,STARLINK-4594,PAYLOAD,2022-11-24 14:00:01,15.14939644,0.0001248,53.2166,215.9005,78.64699999999998,210.917,-0.067215,-0.01166359,0.0,0 STARLINK-4594,1 53638U 22104BC  22328.58334491 -.01166359  00000-0 -67215-1 0  9993,2 53638  53.2166 215.9005 0001248  78.6470 210.9170 15.14939644  1309,6899.299,95.053,522.025,520.303,0.0
53638.0,STARLINK-4594,PAYLOAD,2022-11-24 22:00:00,15.14135667,0.0001325,53.2168,214.392,106.7936,201.1763,-0.069664,-0.01180361,0.0,0 STARLINK-4594,1 53638U 22104BC  22328.91667824 -.01180361  00000-0 -69664-1 0  9998,2 53638  53.2168 214.3920 0001325 106.7936 201.1763 15.14135667  1309,6901.741,95.104,524.52,522.691,0.0
53638.0,STARLINK-4594,PAYLOAD,2022-11-25 14:00:01,15.12509648,0.0001172,53.2163,211.3776,87.0957,254.7613,-0.072978,-0.0118096,0.0,0 STARLINK-4594,1 53638U 22104BC  22329.58334491 -.01180960  00000-0 -72978-1 0  9990,2 53638  53.2163 211.3776 0001172  87.0957 254.7613 15.12509648  1304,6906.686,95.206,529.361,527.742,0.0
53638.0,STARLINK-4594,PAYLOAD,2022-11-25 22:00:00,15.11689365,0.0001262999999999,53.2166,209.8747,103.3325,254.005,-0.074101,-0.01172605,0.0,0 STARLINK-4594,1 53638U 22104BC  22329.91667824 -.01172605  00000-0 -74101-1 0  9993,2 53638  53.2166 209.8747 0001263 103.3325 254.0050 15.11689365 14080,6909.185,95.258,531.922,530.177,0.0
53638.0,STARLINK-4594,PAYLOAD,2022-11-26 00:00:00,15.11470832,0.0001383,53.2171,209.4996,97.1259,353.9362,-0.073234,-0.01153469,0.0,0 STARLINK-4594,1 53638U 22104BC  22330.00001157 -.01153469  00000-0 -73234-1 0  9999,2 53638  53.2171 209.4996 0001383  97.1259 353.9362 15.11470832  1300,6909.851,95.271,532.6709999999998,530.76,0.0
53638.0,STARLINK-4594,PAYLOAD,2022-11-26 14:00:01,15.10012613,0.0001344,53.2167,206.8715,81.0739,304.3024,-0.071211,-0.01082617,0.0,0 STARLINK-4594,1 53638U 22104BC  22330.58334491 -.01082617  00000-0 -71211-1 0  9991,2 53638  53.2167 206.8715 0001344  81.0739 304.3024 15.10012613  1300,6914.2980000000025,95.363,537.0930000000002,535.234,0.0
53638.0,STARLINK-4594,PAYLOAD,2022-11-26 22:00:00,15.09169602,0.0001481,53.2164,205.3745,106.827,291.0779,-0.030006,-0.0045277,0.0,0 STARLINK-4594,1 53638U 22104BC  22330.91667824 -.00452770  00000-0 -30006-1 0  9994,2 53638  53.2164 205.3745 0001481 106.8270 291.0779 15.09169602 14236,6916.873000000001,95.417,539.762,537.714,0.0
53638.0,STARLINK-4594,PAYLOAD,2022-11-27 06:00:00,15.08852863,0.0001774999999999,53.2118,203.8768,83.1311,326.4287,-0.00066855,-0.00010916,0.0,0 STARLINK-4594,1 53638U 22104BC  22331.25001157 -.00010916  00000-0 -66855-3 0  9998,2 53638  53.2118 203.8768 0001775  83.1311 326.4287 15.08852863 14281,6917.840999999999,95.437,540.934,538.4780000000002,0.0
53638.0,STARLINK-4594,PAYLOAD,2022-11-27 14:00:01,15.08829299,0.0001779,53.2134,202.3787,90.7213,330.4459,0.0028398,0.00045184,0.0,0 STARLINK-4594,1 53638U 22104BC  22331.58334491  .00045184  00000-0  28398-2 0  9996,2 53638  53.2134 202.3787 0001779  90.7213 330.4459 15.08829299  1305,6917.913000000001,95.438,541.009,538.547,0.0
53638.0,STARLINK-4594,PAYLOAD,2022-11-27 22:00:00,15.08859515,0.0001821,53.2136,200.884,84.2506,348.5136,-0.0019491,-0.00031191,0.0,0 STARLINK-4594,1 53638U 22104BC  22331.91667824 -.00031191  00000-0 -19491-2 0  9991,2 53638  53.2136 200.8840 0001821  84.2506 348.5136 15.08859515  1307,6917.821,95.436,540.945,538.4259999999998,0.0
53638.0,STARLINK-4594,PAYLOAD,2022-11-28 14:00:01,15.08821487,0.000171,53.214,197.8892,90.0568,5.916,0.0024229,0.00038464,0.0,0 STARLINK-4594,1 53638U 22104BC  22332.58334491  .00038464  00000-0  24229-2 0  9999,2 53638  53.2140 197.8892 0001710  90.0568   5.9160 15.08821487 14485,6917.937,95.439,540.985,538.619,0.0
53638.0,STARLINK-4594,PAYLOAD,2022-11-28 22:00:01,15.08843522,0.0001774999999999,53.2141,196.3945,83.0131,24.6129,-0.00057882,-9.489e-05,0.0,0 STARLINK-4594,1 53638U 22104BC  22332.91668981 -.00009489  00000-0 -57882-3 0  9999,2 53638  53.2141 196.3945 0001775  83.0131  24.6129 15.08843522  1302,6917.87,95.437,540.9630000000002,538.507,0.0
53638.0,STARLINK-4594,PAYLOAD,2022-11-29 06:00:00,15.08862671,0.000172,53.2143,194.8976,82.564,36.5918,-0.0015458,-0.00024821,0.0,0 STARLINK-4594,1 53638U 22104BC  22333.25001157 -.00024821  00000-0 -15458-2 0  9992,2 53638  53.2143 194.8976 0001720  82.5640  36.5918 15.08862671 14588,6917.811,95.436,540.866,538.486,0.0
53638.0,STARLINK-4594,PAYLOAD,2022-11-29 14:00:01,15.08843672,0.0001761999999999,53.2148,193.3998,89.8149,41.0161,0.002018,0.00031978,0.0,0 STARLINK-4594,1 53638U 22104BC  22333.58335648  .00031978  00000-0  20180-2 0  9990,2 53638  53.2148 193.3998 0001762  89.8149  41.0161 15.08843672  1308,6917.869000000002,95.437,540.953,538.515,0.0
53638.0,STARLINK-4594,PAYLOAD,2022-11-29 22:00:00,15.08860596,0.0001786,53.2149,191.9052,82.3701,60.0123,-0.00045514,-7.529e-05,0.0,0 STARLINK-4594,1 53638U 22104BC  22333.91667824 -.00007529  00000-0 -45514-3 0  9997,2 53638  53.2149 191.9052 0001786  82.3701  60.0123 15.08860596 14680,6917.816999999999,95.436,540.918,538.447,0.0
53638.0,STARLINK-4594,PAYLOAD,2022-11-30 14:00:01,15.0883758,0.0001667,53.2155,188.9105,91.05,74.6222,0.0016656,0.00026318,0.0,0 STARLINK-4594,1 53638U 22104BC  22334.58335648  .00026318  00000-0  16656-2 0  9996,2 53638  53.2155 188.9105 0001667  91.0500  74.6222 15.08837580  1307,6917.888000000001,95.438,540.906,538.6,0.0
